OBJECT_NAME,OBJECT_ID,EPOCH,MEAN_MOTION,ECCENTRICITY,INCLINATION,RA_OF_ASC_NODE,ARG_OF_PERICENTER,MEAN_ANOMALY,EPHEMERIS_TYPE,CLASSIFICATION_TYPE,NORAD_CAT_ID,ELEMENT_SET_NO,REV_AT_EPOCH,BSTAR,MEAN_MOTION_DOT,MEAN_MOTION_DDOT
PROBA-1,2001-049B,2026-07-01T03:24:19.143936,15.07557440,.0056695,97.9594,191.1617,76.2663,284.4866,0,U,26958,999,34572,.16898E-3,.2593E-4,0
CUTE-1 (CO-55),2003-031E,2026-07-01T00:23:45.199104,14.24344253,.0010358,98.6736,190.4014,139.6861,220.5088,0,U,27844,999,19364,.15975E-3,.326E-5,0
CUBESAT XI-IV (CO-57),2003-031J,2026-07-01T00:17:07.885248,14.23628222,.0009846,98.6768,190.0986,157.0958,203.0662,0,U,27848,999,19334,.13985E-3,.275E-5,0
APRIZESAT 4,2009-041D,2026-07-01T03:32:58.402752,14.83897710,.0041888,98.1410,257.7465,276.5074,83.1371,0,U,35684,999,91343,.96134E-4,.751E-5,0
APRIZESAT 3,2009-041F,2026-07-01T03:25:10.240896,14.96279358,.0062086,98.2078,336.0363,22.0128,338.3737,0,U,35686,999,91846,.91993E-4,.1011E-4,0
PROBA-2,2009-059B,2026-07-01T01:32:39.250752,14.54868522,.0012158,98.2452,5.2248,234.6770,125.3291,0,U,36037,999,88354,.61235E-4,.218E-5,0
APRIZESAT 5,2011-044E,2026-07-01T01:25:28.894080,14.81105153,.0051258,98.2451,115.4931,319.3528,40.3862,0,U,37792,999,80084,.14803E-3,.1115E-4,0
APRIZESAT 6,2011-044F,2026-07-01T00:37:37.124832,14.76937493,.0044088,98.2353,92.8077,43.0066,329.2231,0,U,37793,999,79919,.13136E-3,.883E-5,0
PROBA-V,2013-021A,2026-07-01T04:13:34.238208,14.23600465,.0005441,98.3593,160.0926,91.5948,268.5855,0,U,39159,999,68310,.655E-4,.108E-5,0
APRIZESAT 7,2013-066A,2026-07-01T02:34:56.957088,14.91593129,.0036208,97.7715,135.1278,162.8035,197.4419,0,U,39416,999,68330,.11495E-3,.111E-4,0
APRIZESAT 8,2013-066K,2026-06-30T19:05:22.843392,14.87675981,.00445005,97.8225,129.0740,240.2709,119.4076,0,U,39425,999,68169,.98131959E-4,.852E-5,0
BUGSAT-1 (TITA),2014-033E,2026-07-01T03:56:44.820096,15.15739730,.0029,98.0441,275.5314,131.5349,228.8376,0,U,40014,999,65795,.31135E-3,.5923E-4,0
SAUDISAT 4,2014-033G,2026-07-01T02:50:01.878720,14.79562058,.0045416,97.7600,327.7720,29.7379,330.6400,0,U,40016,999,64813,.89664E-4,.631E-5,0
APRIZESAT 9,2014-033J,2026-07-01T04:33:04.725792,14.74235491,.0066767,97.9078,315.0471,154.2326,206.2234,0,U,40018,999,64562,.13643E-3,.882E-5,0
APRIZESAT 10,2014-033K,2026-07-01T03:22:00.349248,14.70896861,.0077755,97.9667,308.7898,228.5599,130.8912,0,U,40019,999,64430,.11066E-3,.656E-5,0
TECHDEMOSAT-1 (TDS-1),2014-037H,2026-06-30T23:27:06.217056,15.13498270,.0005455,98.3813,175.5587,205.7712,154.3245,0,U,40076,999,65031,.54354E-3,.9662E-4,0
TECHNOSAT,2017-042E,2026-07-01T00:17:23.877024,15.05039143,.001881,97.4293,339.1453,50.5615,309.7273,0,U,42829,999,48878,.20199E-3,.282E-4,0
FLYING LAPTOP,2017-042G,2026-07-01T04:23:51.544608,15.01232383,.002,97.4748,337.1825,76.9523,283.3933,0,U,42831,999,48855,.22183E-3,.2802E-4,0
HAWK-A,2018-099H,2026-07-01T03:07:12.087264,15.24806786,.0033442,97.3904,234.1847,234.4067,125.4054,0,U,43765,999,41522,.31524E-3,.7873E-4,0
HAWK-B,2018-099AN,2026-07-01T02:27:35.612928,15.22974486,.0030337,97.3953,233.5434,253.3746,106.4159,0,U,43794,999,41515,.31568E-3,.7441E-4,0
HAWK-C,2018-099AT,2026-07-01T03:22:06.132000,15.28298982,.0039077,97.3881,235.1762,234.3186,125.4414,0,U,43799,999,41604,.34945E-3,.9779E-4,0
SALSAT,2020-068K,2026-07-01T00:16:38.041824,15.29994176,.0007968,97.8843,185.9193,248.9011,111.1377,0,U,46495,999,31747,.33118E-3,.9542E-4,0
HAWK-2C,2021-006CT,2026-07-01T04:05:11.010912,15.34833898,.000807,97.2267,226.2018,141.0750,219.1076,0,U,47502,999,30164,.23906E-3,.8004E-4,0
HAWK-2A,2021-006CW,2026-07-01T04:08:34.751616,15.34848755,.0007532,97.2309,226.8900,143.8967,216.2787,0,U,47505,999,30164,.24531E-3,.8219E-4,0
HAWK-2B,2021-006CZ,2026-07-01T02:26:59.337888,15.34957815,.0008106,97.2177,225.1303,142.7732,217.4075,0,U,47508,999,30163,.27544E-3,.9272E-4,0
HAWK-3B,2021-059BE,2026-07-01T02:09:54.880128,15.70725854,.0003334,97.6642,20.1245,258.6931,101.3956,0,U,48931,999,28003,.43826E-3,.54334E-3,0
HAWK-3C,2021-059BX,2026-07-01T02:09:26.788896,15.70723354,.0003506,97.6757,25.8334,258.6923,101.3944,0,U,48948,999,28003,.42382E-3,.52525E-3,0
HAWK-3A,2021-059CG,2026-07-01T00:37:32.155968,15.70715622,.0003491,97.6701,22.9571,261.7469,98.3396,0,U,48957,999,28002,.44228E-3,.54814E-3,0
HAWK-5C,2022-057Y,2026-07-01T04:01:20.722080,15.51882074,.0004011,97.6610,342.7413,36.2830,323.8693,0,U,52754,999,22851,.39857E-3,.23818E-3,0
HAWK-5B,2022-057AA,2026-07-01T04:01:05.551968,15.51886837,.0004602,97.6620,341.0916,27.1390,333.0101,0,U,52756,999,22851,.40672E-3,.24315E-3,0
HAWK-5A,2022-057AB,2026-07-01T04:00:48.589056,15.51886055,.0004525,97.6618,341.9228,30.4342,329.7171,0,U,52757,999,22851,.4081E-3,.24397E-3,0
