PROBA-1                 
1 26958U 01049B   26182.14188824  .00002593  00000+0  16898-3 0  9992
2 26958  97.9594 191.1617 0056695  76.2663 284.4866 15.07557440345729
CUTE-1 (CO-55)          
1 27844U 03031E   26182.01649536  .00000326  00000+0  15975-3 0  9995
2 27844  98.6736 190.4014 0010358 139.6861 220.5088 14.24344253193646
CUBESAT XI-IV (CO-57)   
1 27848U 03031J   26182.01189682  .00000275  00000+0  13985-3 0  9992
2 27848  98.6768 190.0986 0009846 157.0958 203.0662 14.23628222193341
APRIZESAT 4             
1 35684U 09041D   26182.14789818  .00000751  00000+0  96134-4 0  9994
2 35684  98.1410 257.7465 0041888 276.5074  83.1371 14.83897710913438
APRIZESAT 3             
1 35686U 09041F   26182.14247964  .00001011  00000+0  91993-4 0  9995
2 35686  98.2078 336.0363 0062086  22.0128 338.3737 14.96279358918461
PROBA-2                 
1 36037U 09059B   26182.06434318  .00000218  00000+0  61235-4 0  9991
2 36037  98.2452   5.2248 0012158 234.6770 125.3291 14.54868522883544
APRIZESAT 5             
1 37792U 11044E   26182.05936220  .00001115  00000+0  14803-3 0  9990
2 37792  98.2451 115.4931 0051258 319.3528  40.3862 14.81105153800847
APRIZESAT 6             
1 37793U 11044F   26182.02612413  .00000883  00000+0  13136-3 0  9992
2 37793  98.2353  92.8077 0044088  43.0066 329.2231 14.76937493799197
PROBA-V                 
1 39159U 13021A   26182.17609072  .00000108  00000+0  65500-4 0  9993
2 39159  98.3593 160.0926 0005441  91.5948 268.5855 14.23600465683108
APRIZESAT 7             
1 39416U 13066A   26182.10760367  .00001110  00000+0  11495-3 0  9993
2 39416  97.7715 135.1278 0036208 162.8035 197.4419 14.91593129683301
APRIZESAT 8             
1 39425U 13066K   26181.79540328  .00000852  00000+0  98132-4 0  9996
2 39425  97.8225 129.0740 0044500 240.2709 119.4076 14.87675981681692
BUGSAT-1 (TITA)         
1 40014U 14033E   26182.16440764  .00005923  00000+0  31135-3 0  9995
2 40014  98.0441 275.5314 0029000 131.5349 228.8376 15.15739730657950
SAUDISAT 4              
1 40016U 14033G   26182.11807730  .00000631  00000+0  89664-4 0  9994
2 40016  97.7600 327.7720 0045416  29.7379 330.6400 14.79562058648132
APRIZESAT 9             
1 40018U 14033J   26182.18963803  .00000882  00000+0  13643-3 0  9998
2 40018  97.9078 315.0471 0066767 154.2326 206.2234 14.74235491645623
APRIZESAT 10            
1 40019U 14033K   26182.14028182  .00000656  00000+0  11066-3 0  9993
2 40019  97.9667 308.7898 0077755 228.5599 130.8912 14.70896861644305
TECHDEMOSAT-1 (TDS-1)   
1 40076U 14037H   26181.97715529  .00009662  00000+0  54354-3 0  9991
2 40076  98.3813 175.5587 0005455 205.7712 154.3245 15.13498270650311
TECHNOSAT               
1 42829U 17042E   26182.01208191  .00002820  00000+0  20199-3 0  9995
2 42829  97.4293 339.1453 0018810  50.5615 309.7273 15.05039143488786
FLYING LAPTOP           
1 42831U 17042G   26182.18323547  .00002802  00000+0  22183-3 0  9994
2 42831  97.4748 337.1825 0020000  76.9523 283.3933 15.01232383488551
HAWK-A                  
1 43765U 18099H   26182.13000101  .00007873  00000+0  31524-3 0  9999
2 43765  97.3904 234.1847 0033442 234.4067 125.4054 15.24806786415222
HAWK-B                  
1 43794U 18099AN  26182.10249552  .00007441  00000+0  31568-3 0  9992
2 43794  97.3953 233.5434 0030337 253.3746 106.4159 15.22974486415155
HAWK-C                  
1 43799U 18099AT  26182.14034875  .00009779  00000+0  34945-3 0  9999
2 43799  97.3881 235.1762 0039077 234.3186 125.4414 15.28298982416049
SALSAT                  
1 46495U 20068K   26182.01155141  .00009542  00000+0  33118-3 0  9999
2 46495  97.8843 185.9193 0007968 248.9011 111.1377 15.29994176317476
HAWK-2C                 
1 47502U 21006CT  26182.17026633  .00008004  00000+0  23906-3 0  9998
2 47502  97.2267 226.2018 0008070 141.0750 219.1076 15.34833898301649
HAWK-2A                 
1 47505U 21006CW  26182.17262444  .00008219  00000+0  24531-3 0  9996
2 47505  97.2309 226.8900 0007532 143.8967 216.2787 15.34848755301642
HAWK-2B                 
1 47508U 21006CZ  26182.10207567  .00009272  00000+0  27544-3 0  9994
2 47508  97.2177 225.1303 0008106 142.7732 217.4075 15.34957815301633
HAWK-3B                 
1 48931U 21059BE  26182.09021852  .00054334  00000+0  43826-3 0  9992
2 48931  97.6642  20.1245 0003334 258.6931 101.3956 15.70725854280034
HAWK-3C                 
1 48948U 21059BX  26182.08989339  .00052525  00000+0  42382-3 0  9998
2 48948  97.6757  25.8334 0003506 258.6923 101.3944 15.70723354280032
HAWK-3A                 
1 48957U 21059CG  26182.02606662  .00054814  00000+0  44228-3 0  9991
2 48957  97.6701  22.9571 0003491 261.7469  98.3396 15.70715622280029
HAWK-5C                 
1 52754U 22057Y   26182.16760095  .00023818  00000+0  39857-3 0  9998
2 52754  97.6610 342.7413 0004011  36.2830 323.8693 15.51882074228519
HAWK-5B                 
1 52756U 22057AA  26182.16742537  .00024315  00000+0  40672-3 0  9991
2 52756  97.6620 341.0916 0004602  27.1390 333.0101 15.51886837228516
HAWK-5A                 
1 52757U 22057AB  26182.16722904  .00024397  00000+0  40810-3 0  9992
2 52757  97.6618 341.9228 0004525  30.4342 329.7171 15.51886055228518
